ACS3                    
1 59588U 24077B   24268.13865030  .00023330  00000+0  26650-1 0  9993
2 59588  97.4277 313.3614 0046756 203.4560 156.4459 13.69253378 20937
